GPS BIIR-2  (PRN 13)    
1 24876U 97035A   22288.52037646  .00000008  00000+0  00000+0 0  9992
2 24876  55.5243 150.9890 0063786  52.8634 307.8041  2.00563406185062
GPS BIIR-4  (PRN 20)    
1 26360U 00025A   22288.19928760 -.00000026  00000+0  00000+0 0  9995
2 26360  54.1592  73.9249 0047965 186.8342  32.8294  2.00564060164374
GPS BIIR-6  (PRN 22)    
1 26605U 00071A   22288.46317896  .00000009  00000+0  00000+0 0  9990
2 26605  55.1102 147.9324 0136809 254.5601 280.3244  2.00554903160621
GPS BIIR-8  (PRN 16)    
1 27663U 03005A   22288.65825622  .00000010  00000+0  00000+0 0  9999
2 27663  55.4365 268.2847 0127144  41.2585 126.5836  2.00557604144419
GPS BIIR-9  (PRN 21)    
1 27704U 03010A   22288.09776413 -.00000106  00000+0  00000+0 0  9999
2 27704  55.0619  18.4692 0245815 308.9598  29.7675  2.00561623143206
GPS BIIR-11 (PRN 19)    
1 28190U 04009A   22287.92736957 -.00000076  00000+0  00000+0 0  9994
2 28190  55.9279 329.3257 0088978 126.6702  27.9338  2.00557845136046
GPS BIIR-13 (PRN 02)    
1 28474U 04045A   22288.52869326 -.00000105  00000+0  00000+0 0  9996
2 28474  55.3878  18.6381 0203127 280.1779 173.1436  2.00421417131549
GPS BIIRM-1 (PRN 17)    
1 28874U 05038A   22288.22762569 -.00000070  00000+0  00000+0 0  9992
2 28874  55.9892 326.7529 0140425 275.5907 123.6259  2.00568405124942
GPS BIIRM-2 (PRN 31)    
1 29486U 06042A   22288.43360059 -.00000008  00000+0  00000+0 0  9990
2 29486  54.7034 204.5073 0105209  24.3105  77.2186  2.00572105117504
GPS BIIRM-3 (PRN 12)    
1 29601U 06052A   22288.23944924  .00000008  00000+0  00000+0 0  9996
2 29601  55.4472 267.2445 0083078  75.0288 285.8780  2.00557620116512
GPS BIIRM-4 (PRN 15)    
1 32260U 07047A   22288.54491199  .00000012  00000+0  00000+0 0  9996
2 32260  53.3462 135.5654 0144472  65.2975 296.2765  2.00568479109922
GPS BIIRM-5 (PRN 29)    
1 32384U 07062A   22288.37339250 -.00000070  00000+0  00000+0 0  9995
2 32384  56.1117 327.5241 0020411 147.0513 216.8486  2.00568747108627
GPS BIIRM-6 (PRN 07)    
1 32711U 08012A   22287.96272795 -.00000005  00000+0  00000+0 0  9997
2 32711  54.4651 203.4337 0166072 232.1573 126.3666  2.00568414106858
GPS BIIRM-8 (PRN 05)    
1 35752U 09043A   22288.45071286 -.00000011  00000+0  00000+0 0  9994
2 35752  55.1672  80.7010 0057799  63.9891 299.7773  2.00578266 96475
GPS BIIF-1  (PRN 25)    
1 36585U 10022A   22288.28065380  .00000008  00000+0  00000+0 0  9992
2 36585  54.7344 262.6787 0104407  56.7622 306.7636  2.00571563 90704
GPS BIIF-2  (PRN 01)    
1 37753U 11036A   22288.22367927 -.00000099  00000+0  00000+0 0  9993
2 37753  56.6547  24.0481 0118254  53.4612 351.7476  2.00566158 82388
GPS BIIF-3  (PRN 24)    
1 38833U 12053A   22288.14532788 -.00000008  00000+0  00000+0 0  9993
2 38833  53.5214 198.4520 0130363  47.9264 313.2201  2.00563332 72548
GPS BIIF-4  (PRN 27)    
1 39166U 13023A   22288.50211776 -.00000063  00000+0  00000+0 0  9993
2 39166  55.6123 323.0675 0104949  38.2513 322.5403  2.00565470 68994
GPS BIIF-5  (PRN 30)    
1 39533U 14008A   22288.00628717 -.00000006  00000+0  00000+0 0  9994
2 39533  53.6135 203.9767 0060500 209.5706 150.1225  2.00560231 62780
GPS BIIF-6  (PRN 06)    
1 39741U 14026A   22288.28822385 -.00000100  00000+0  00000+0 0  9997
2 39741  56.6143  23.5713 0026978 304.7485  55.0230  2.00580125 61640
GPS BIIF-7  (PRN 09)    
1 40105U 14045A   22287.87379921  .00000011  00000+0  00000+0 0  9991
2 40105  54.7166 142.0356 0023663 111.4884 248.8463  2.00555460 59173
GPS BIIF-8  (PRN 03)    
1 40294U 14068A   22288.23955778 -.00000007  00000+0  00000+0 0  9992
2 40294  55.9104  83.2070 0042670  58.5418 301.8790  2.00549876 58311
GPS BIIF-9  (PRN 26)    
1 40534U 15013A   22287.88675674  .00000005  00000+0  00000+0 0  9991
2 40534  53.6346 259.7450 0071952  20.2002 340.0647  2.00574883 54928
GPS BIIF-10 (PRN 08)    
1 40730U 15033A   22288.04393488 -.00000065  00000+0  00000+0 0  9997
2 40730  55.1082 321.8572 0075827   7.5279 352.6349  2.00571933 53093
GPS BIIF-11 (PRN 10)    
1 41019U 15062A   22288.09400662 -.00000009  00000+0  00000+0 0  9996
2 41019  55.8978  83.0582 0081783 217.5369 141.8950  2.00562649 50934
GPS BIIF-12 (PRN 32)    
1 41328U 16007A   22287.18454077  .00000013  00000+0  00000+0 0  9991
2 41328  54.9304 142.7632 0063016 229.7092 129.8221  2.00565360 48922
GPS BIII-1  (PRN 04)    
1 43873U 18109A   22288.57222983  .00000011  00000+0  00000+0 0  9994
2 43873  55.1099 145.1532 0020961 187.8962 346.2381  2.00555314 28187
GPS BIII-2  (PRN 18)    
1 44506U 19056A   22288.40374396 -.00000100  00000+0  00000+0 0  9998
2 44506  55.7296  24.2849 0029064 182.4688 130.2197  2.00558873 23176
GPS BIII-3  (PRN 23)    
1 45854U 20041A   22288.48332664 -.00000008  00000+0  00000+0 0  9998
2 45854  55.6172  81.5485 0027439 178.6039 129.6917  2.00569303 17140
GPS BIII-4  (PRN 14)    
1 46826U 20078A   22288.31361120  .00000007  00000+0  00000+0 0  9997
2 46826  54.4943 265.2290 0023884 191.6302 330.9619  2.00565359 14618
GPS BIII-5  (PRN 11)    
1 48859U 21054A   22288.33799675 -.00000099  00000+0  00000+0 0  9994
2 48859  55.2385  26.2285 0008321 202.9904 162.2752  2.00566707  9860
